SIRION PATHFINDER-2     
1 43759U 18099B   26183.44289806  .00005009  00000+0  27406-3 0  9991
2 43759  97.4240 232.1382 0007319 240.1372 119.9133 15.14680073414939
CORVUS BC4              
1 43767U 18099K   26182.08100218  .00005142  00000+0  29796-3 0  9990
2 43767  97.4054 224.6547 0006930 321.1885  38.8848 15.12603535414508
M2 PATHFINDER           
1 45727U 20037E   26183.80731659  .00003398  00000+0  24524-3 0  9998
2 45727  97.8148  15.2141 0012888  99.9465 260.3216 15.04748560327841
NETSAT-4                
1 46504U 20068U   26183.61299830  .00017984  00000+0  39116-3 0  9994
2 46504  97.8600 193.0981 0003447 250.0471 110.0405 15.44380953318150
NETSAT-3                
1 46505U 20068V   26183.76068933  .00020196  00000+0  45631-3 0  9997
2 46505  97.8650 191.4550 0002892 277.6321  82.4597 15.43224400318081
NETSAT-1                
1 46506U 20068W   26183.26102793  .00013631  00000+0  40391-3 0  9990
2 46506  97.8745 185.0671 0003139 337.8079  22.3027 15.34987582317610
NETSAT-2                
1 46507U 20068X   26183.50164693  .00024138  00000+0  48478-3 0  9993
2 46507  97.8610 192.9295 0001408 305.0329  55.0787 15.46666067318109
GREENCUBE (IO-117)      
1 53109U 22080E   26181.72466670 -.00000003  00000+0  00000+0 0  9998
2 53109  70.1437 293.5372 0008958 286.6703  73.2973  6.42583253 92937
SITRO-AIS 5 (KATYS)     
1 57176U 23091L   26183.83561170  .00014379  00000+0  49912-3 0  9993
2 57176  97.5050 247.8866 0011929  54.3065 305.9283 15.29821063166730
SITRO-AIS 6 (CHIRKIN)   
1 57192U 23091AC  26183.85093906  .00012346  00000+0  47824-3 0  9992
2 57192  97.5058 246.9376 0012385  57.5970 302.6465 15.26237516166679
SITRO-AIS 8 (ANOKHIN)   
1 57193U 23091AD  26183.82497786  .00016609  00000+0  52920-3 0  9993
2 57193  97.5047 249.5289 0010779  50.4495 309.7697 15.32566965166843
SITRO-AIS 7 (FARTUSHNIY)
1 57194U 23091AE  26183.79174559  .00010997  00000+0  43051-3 0  9999
2 57194  97.5053 246.6948 0012303  58.8011 301.4432 15.25915941166651
SITRO-AIS 10 (BURDAEV)  
1 57199U 23091AK  26183.78996828  .00022223  00000+0  57256-3 0  9991
2 57199  97.5073 254.7105 0006078  30.2089 329.9505 15.39206110167163
SITRO-AIS 9 (SHCHUKIN)  
1 57201U 23091AM  26183.82140426  .00024379  00000+0  63802-3 0  9993
2 57201  97.5070 254.4603 0006345  30.0764 330.0844 15.38704623167158
SITRO-AIS 12 (SMIRENNIY)
1 57204U 23091AQ  26183.80904977  .00025248  00000+0  65437-3 0  9995
2 57204  97.5084 254.9247 0005829  24.1871 335.9647 15.38999707167170
SITRO-AIS 11 (SHEFFER)  
1 57208U 23091AU  26183.81810795  .00025661  00000+0  65569-3 0  9999
2 57208  97.5083 255.1904 0005762  23.9453 336.2059 15.39432700167194
SITRO-AIS 25            
1 59066U 24039R   26183.85262101  .00003718  00000+0  29158-3 0  9995
2 59066  95.3898 245.8577 0142273 273.2648  85.2310 14.93589252127062
SITRO-AIS 26            
1 59067U 24039S   26183.85614108  .00003566  00000+0  28109-3 0  9990
2 59067  95.3899 245.7545 0142596 273.8637  84.6296 14.93383019127058
SITRO-AIS 27            
1 59068U 24039T   26183.88896465  .00002680  00000+0  21005-3 0  9996
2 59068  95.3901 246.0564 0141776 272.3083  86.1916 14.93803808127088
SITRO-AIS 28            
1 59071U 24039U   26183.86605939  .00003367  00000+0  26312-3 0  9991
2 59071  95.3904 246.0887 0141528 272.2282  86.2744 14.93839733127084
GRBBETA                 
1 60237U 24128C   26183.68340293  .00004303  00000+0  29759-3 0  9994
2 60237  61.9887 161.8933 0038648 137.9860 222.4208 15.06735008108603
OOV-CUBE (TUBSAT-30)    
1 60240U 24128F   26183.69186645  .00002197  00000+0  17578-3 0  9993
2 60240  61.9926 171.5059 0042719 137.2336 223.2093 15.02831807108446
ROBUSTA-3A (MEDITERRAN*)
1 60243U 24128J   26183.87712984  .00008728  00000+0  51087-3 0  9996
2 60243  61.9855 152.7518 0039598 131.1452 229.3071 15.11839773108795
LASARSAT                
1 62391U 24247Q   26183.66931882  .00032981  00000+0  63607-3 0  9990
2 62391  44.9722 175.1548 0006585  71.8885 288.2722 15.47293079 85712
CROCUBE                 
1 62394U 24247T   26183.26077660  .00043599  00000+0  78103-3 0  9998
2 62394  44.9691 174.5342 0006479  75.1846 284.9762 15.49290769 85689
FORESAIL-1 PRIME        
1 66778U 25276DS  26183.67718546  .00005924  00000+0  28756-3 0  9990
2 66778  97.4196 256.6654 0003672  71.4319 288.7315 15.18841293 32752
KNACKSAT-2              
1 67683U 98067XZ  26183.27043350  .00047788  00000+0  55339-3 0  9995
2 67683  51.6255 218.5343 0008371 281.3126  78.6927 15.61304103 22630
